[{"OBJECT_NAME":"METEOSAT-11 (MSG-4)","OBJECT_ID":"2015-034A","EPOCH":"2026-04-04T21:23:17.369664","MEAN_MOTION":1.0027604,"ECCENTRICITY":0.00017396,"INCLINATION":3.0178,"RA_OF_ASC_NODE":71.4926,"ARG_OF_PERICENTER":285.2508,"MEAN_ANOMALY":166.5854,"EPHEMERIS_TYPE":0,"CLASSIFICATION_TYPE":"U","NORAD_CAT_ID":40732,"ELEMENT_SET_NO":999,"REV_AT_EPOCH":648,"BSTAR":0,"MEAN_MOTION_DOT":6.5e-7,"MEAN_MOTION_DDOT":0},{"OBJECT_NAME":"STAR ONE C4","OBJECT_ID":"2015-034B","EPOCH":"2026-04-04T19:17:56.236704","MEAN_MOTION":1.00273249,"ECCENTRICITY":0.00028106,"INCLINATION":0.011,"RA_OF_ASC_NODE":62.9854,"ARG_OF_PERICENTER":310.3473,"MEAN_ANOMALY":39.261,"EPHEMERIS_TYPE":0,"CLASSIFICATION_TYPE":"U","NORAD_CAT_ID":40733,"ELEMENT_SET_NO":999,"REV_AT_EPOCH":3927,"BSTAR":0,"MEAN_MOTION_DOT":-2.64e-6,"MEAN_MOTION_DDOT":0},{"OBJECT_NAME":"WGS F7 (USA 263)","OBJECT_ID":"2015-036A","EPOCH":"2026-04-04T20:27:47.021184","MEAN_MOTION":1.00271681,"ECCENTRICITY":0.00014162,"INCLINATION":0.0161,"RA_OF_ASC_NODE":224.2385,"ARG_OF_PERICENTER":260.7619,"MEAN_ANOMALY":190.0962,"EPHEMERIS_TYPE":0,"CLASSIFICATION_TYPE":"U","NORAD_CAT_ID":40746,"ELEMENT_SET_NO":999,"REV_AT_EPOCH":3913,"BSTAR":0,"MEAN_MOTION_DOT":1.8e-7,"MEAN_MOTION_DDOT":0},{"OBJECT_NAME":"ARIANE 2 DEB","OBJECT_ID":"1989-006CG","EPOCH":"2026-03-27T21:19:59.437632","MEAN_MOTION":2.25298078,"ECCENTRICITY":0.7129205,"INCLINATION":7.9671,"RA_OF_ASC_NODE":280.334,"ARG_OF_PERICENTER":40.6045,"MEAN_ANOMALY":349.7054,"EPHEMERIS_TYPE":0,"CLASSIFICATION_TYPE":"U","NORAD_CAT_ID":40787,"ELEMENT_SET_NO":999,"REV_AT_EPOCH":10160,"BSTAR":-0.0011192928,"MEAN_MOTION_DOT":-1.92e-6,"MEAN_MOTION_DDOT":0},{"OBJECT_NAME":"CZ-3A DEB","OBJECT_ID":"2007-003AS","EPOCH":"2026-04-02T02:51:07.825248","MEAN_MOTION":1.72450083,"ECCENTRICITY":0.76624464,"INCLINATION":26.8221,"RA_OF_ASC_NODE":76.4931,"ARG_OF_PERICENTER":164.9006,"MEAN_ANOMALY":248.6562,"EPHEMERIS_TYPE":0,"CLASSIFICATION_TYPE":"U","NORAD_CAT_ID":40813,"ELEMENT_SET_NO":999,"REV_AT_EPOCH":8315,"BSTAR":0.0017465954,"MEAN_MOTION_DOT":6.5e-7,"MEAN_MOTION_DDOT":0},{"OBJECT_NAME":"CZ-3B DEB","OBJECT_ID":"2010-042X","EPOCH":"2026-04-02T09:29:15.629856","MEAN_MOTION":1.90412866,"ECCENTRICITY":0.73683231,"INCLINATION":25.973,"RA_OF_ASC_NODE":175.5426,"ARG_OF_PERICENTER":129.3065,"MEAN_ANOMALY":322.5602,"EPHEMERIS_TYPE":0,"CLASSIFICATION_TYPE":"U","NORAD_CAT_ID":40814,"ELEMENT_SET_NO":999,"REV_AT_EPOCH":7932,"BSTAR":-0.003182203,"MEAN_MOTION_DOT":-1.7e-7,"MEAN_MOTION_DDOT":0},{"OBJECT_NAME":"CZ-3B DEB","OBJECT_ID":"2010-042Y","EPOCH":"2026-03-31T08:46:40.755936","MEAN_MOTION":1.91046241,"ECCENTRICITY":0.7328215,"INCLINATION":25.9504,"RA_OF_ASC_NODE":154.0569,"ARG_OF_PERICENTER":181.3103,"MEAN_ANOMALY":174.2517,"EPHEMERIS_TYPE":0,"CLASSIFICATION_TYPE":"U","NORAD_CAT_ID":40815,"ELEMENT_SET_NO":999,"REV_AT_EPOCH":529,"BSTAR":0.0056861673,"MEAN_MOTION_DOT":-3.8e-7,"MEAN_MOTION_DDOT":0},{"OBJECT_NAME":"CZ-3C DEB","OBJECT_ID":"2010-057AK","EPOCH":"2026-04-02T17:04:01.990560","MEAN_MOTION":2.25731866,"ECCENTRICITY":0.71339025,"INCLINATION":19.9384,"RA_OF_ASC_NODE":121.4432,"ARG_OF_PERICENTER":115.6679,"MEAN_ANOMALY":331.3517,"EPHEMERIS_TYPE":0,"CLASSIFICATION_TYPE":"U","NORAD_CAT_ID":40818,"ELEMENT_SET_NO":999,"REV_AT_EPOCH":9127,"BSTAR":0.00051725728,"MEAN_MOTION_DOT":-4.5e-7,"MEAN_MOTION_DDOT":0},{"OBJECT_NAME":"CZ-3C DEB","OBJECT_ID":"2010-057AQ","EPOCH":"2026-04-04T03:52:13.718496","MEAN_MOTION":2.23708538,"ECCENTRICITY":0.71948156,"INCLINATION":20.5457,"RA_OF_ASC_NODE":91.5816,"ARG_OF_PERICENTER":157.0643,"MEAN_ANOMALY":266.6692,"EPHEMERIS_TYPE":0,"CLASSIFICATION_TYPE":"U","NORAD_CAT_ID":40823,"ELEMENT_SET_NO":999,"REV_AT_EPOCH":9136,"BSTAR":0.0002083904,"MEAN_MOTION_DOT":-4.8e-7,"MEAN_MOTION_DDOT":0},{"OBJECT_NAME":"CZ-3C DEB","OBJECT_ID":"2010-057BB","EPOCH":"2026-04-02T07:54:55.520928","MEAN_MOTION":2.19668131,"ECCENTRICITY":0.71765538,"INCLINATION":19.7627,"RA_OF_ASC_NODE":165.4228,"ARG_OF_PERICENTER":42.2629,"MEAN_ANOMALY":354.7518,"EPHEMERIS_TYPE":0,"CLASSIFICATION_TYPE":"U","NORAD_CAT_ID":40834,"ELEMENT_SET_NO":999,"REV_AT_EPOCH":8884,"BSTAR":0.0014982058,"MEAN_MOTION_DOT":-1.0e-6,"MEAN_MOTION_DDOT":0},{"OBJECT_NAME":"CZ-3C DEB","OBJECT_ID":"2010-057BC","EPOCH":"2026-04-04T10:07:48.913824","MEAN_MOTION":2.20288454,"ECCENTRICITY":0.72085757,"INCLINATION":19.5339,"RA_OF_ASC_NODE":140.4332,"ARG_OF_PERICENTER":91.3547,"MEAN_ANOMALY":344.3017,"EPHEMERIS_TYPE":0,"CLASSIFICATION_TYPE":"U","NORAD_CAT_ID":40835,"ELEMENT_SET_NO":999,"REV_AT_EPOCH":1073,"BSTAR":0.00054413994,"MEAN_MOTION_DOT":-1.8e-7,"MEAN_MOTION_DDOT":0},{"OBJECT_NAME":"CZ-3B DEB","OBJECT_ID":"2011-077T","EPOCH":"2026-04-01T13:15:23.874624","MEAN_MOTION":1.95826673,"ECCENTRICITY":0.74763545,"INCLINATION":26.0186,"RA_OF_ASC_NODE":248.7751,"ARG_OF_PERICENTER":209.3136,"MEAN_ANOMALY":71.0433,"EPHEMERIS_TYPE":0,"CLASSIFICATION_TYPE":"U","NORAD_CAT_ID":40838,"ELEMENT_SET_NO":999,"REV_AT_EPOCH":7874,"BSTAR":0.005290069,"MEAN_MOTION_DOT":1.502e-5,"MEAN_MOTION_DDOT":0},{"OBJECT_NAME":"CZ-3B DEB","OBJECT_ID":"2011-077X","EPOCH":"2026-04-04T11:01:21.849024","MEAN_MOTION":1.76768064,"ECCENTRICITY":0.7548859,"INCLINATION":22.7313,"RA_OF_ASC_NODE":51.5976,"ARG_OF_PERICENTER":61.1263,"MEAN_ANOMALY":353.2466,"EPHEMERIS_TYPE":0,"CLASSIFICATION_TYPE":"U","NORAD_CAT_ID":40842,"ELEMENT_SET_NO":999,"REV_AT_EPOCH":7888,"BSTAR":0.003625,"MEAN_MOTION_DOT":3.0e-8,"MEAN_MOTION_DDOT":0},{"OBJECT_NAME":"CZ-3B DEB","OBJECT_ID":"2011-077AA","EPOCH":"2026-04-04T11:02:11.613696","MEAN_MOTION":2.07621636,"ECCENTRICITY":0.73951789,"INCLINATION":21.56,"RA_OF_ASC_NODE":160.9555,"ARG_OF_PERICENTER":147.748,"MEAN_ANOMALY":294.1335,"EPHEMERIS_TYPE":0,"CLASSIFICATION_TYPE":"U","NORAD_CAT_ID":40845,"ELEMENT_SET_NO":999,"REV_AT_EPOCH":9078,"BSTAR":0.0036604293,"MEAN_MOTION_DOT":1.581e-5,"MEAN_MOTION_DDOT":0},{"OBJECT_NAME":"CZ-3B DEB","OBJECT_ID":"2011-077AE","EPOCH":"2026-04-03T22:07:20.889120","MEAN_MOTION":1.90661219,"ECCENTRICITY":0.73994052,"INCLINATION":26.4693,"RA_OF_ASC_NODE":4.9413,"ARG_OF_PERICENTER":31.4069,"MEAN_ANOMALY":356.5338,"EPHEMERIS_TYPE":0,"CLASSIFICATION_TYPE":"U","NORAD_CAT_ID":40849,"ELEMENT_SET_NO":999,"REV_AT_EPOCH":9052,"BSTAR":0.007212734,"MEAN_MOTION_DOT":-1.79e-6,"MEAN_MOTION_DDOT":0},{"OBJECT_NAME":"CZ-3B DEB","OBJECT_ID":"2011-077AF","EPOCH":"2026-04-03T11:13:08.479200","MEAN_MOTION":1.92991505,"ECCENTRICITY":0.74846404,"INCLINATION":24.9861,"RA_OF_ASC_NODE":263.5745,"ARG_OF_PERICENTER":222.1733,"MEAN_ANOMALY":46.2287,"EPHEMERIS_TYPE":0,"CLASSIFICATION_TYPE":"U","NORAD_CAT_ID":40850,"ELEMENT_SET_NO":999,"REV_AT_EPOCH":7785,"BSTAR":0.0023115078,"MEAN_MOTION_DOT":5.53e-6,"MEAN_MOTION_DDOT":0},{"OBJECT_NAME":"CZ-3B DEB","OBJECT_ID":"2011-077AH","EPOCH":"2026-03-31T09:38:09.226752","MEAN_MOTION":1.90689287,"ECCENTRICITY":0.73350464,"INCLINATION":26.9083,"RA_OF_ASC_NODE":57.8031,"ARG_OF_PERICENTER":273.5923,"MEAN_ANOMALY":13.3566,"EPHEMERIS_TYPE":0,"CLASSIFICATION_TYPE":"U","NORAD_CAT_ID":40852,"ELEMENT_SET_NO":999,"REV_AT_EPOCH":8487,"BSTAR":0,"MEAN_MOTION_DOT":6.3e-7,"MEAN_MOTION_DDOT":0}]
