METEOSAT-11 (MSG-4)     
1 40732U 15034A   26094.89117326  .00000065  00000+0  00000+0 0  9996
2 40732   3.0178  71.4926 0001739 285.2508 166.5854  1.00276040  6489
STAR ONE C4             
1 40733U 15034B   26094.80412311 -.00000264  00000+0  00000+0 0  9992
2 40733   0.0110  62.9854 0002810 310.3473  39.2610  1.00273249 39277
WGS F7 (USA 263)        
1 40746U 15036A   26094.85262756  .00000018  00000+0  00000+0 0  9995
2 40746   0.0161 224.2385 0001416 260.7619 190.0962  1.00271681 39139
ARIANE 2 DEB            
1 40787U 89006CG  26086.88888238 -.00000192  00000+0 -11193-2 0  9994
2 40787   7.9671 280.3340 7129205  40.6045 349.7054  2.25298078101606
CZ-3A DEB               
1 40813U 07003AS  26092.11884057  .00000065  00000+0  17466-2 0  9995
2 40813  26.8221  76.4931 7662446 164.9006 248.6562  1.72450083 83150
CZ-3B DEB               
1 40814U 10042X   26092.39531979 -.00000017  00000+0 -31822-2 0  9996
2 40814  25.9730 175.5426 7368323 129.3065 322.5602  1.90412866 79321
CZ-3B DEB               
1 40815U 10042Y   26090.36574949 -.00000038  00000+0  56862-2 0  9999
2 40815  25.9504 154.0569 7328215 181.3103 174.2517  1.91046241  5291
CZ-3C DEB               
1 40818U 10057AK  26092.71113415 -.00000045  00000+0  51726-3 0  9999
2 40818  19.9384 121.4432 7133902 115.6679 331.3517  2.25731866 91276
CZ-3C DEB               
1 40823U 10057AQ  26094.16126989 -.00000048  00000+0  20839-3 0  9990
2 40823  20.5457  91.5816 7194815 157.0643 266.6692  2.23708538 91367
CZ-3C DEB               
1 40834U 10057BB  26092.32980927 -.00000100  00000+0  14982-2 0  9998
2 40834  19.7627 165.4228 7176553  42.2629 354.7518  2.19668131 88848
CZ-3C DEB               
1 40835U 10057BC  26094.42209391 -.00000018  00000+0  54414-3 0  9994
2 40835  19.5339 140.4332 7208575  91.3547 344.3017  2.20288454 10730
CZ-3B DEB               
1 40838U 11077T   26091.55235966  .00001502  00000+0  52901-2 0  9994
2 40838  26.0186 248.7751 7476354 209.3136  71.0433  1.95826673 78743
CZ-3B DEB               
1 40842U 11077X   26094.45928066  .00000003  00000+0  36250-2 0  9995
2 40842  22.7313  51.5976 7548859  61.1263 353.2466  1.76768064 78881
CZ-3B DEB               
1 40845U 11077AA  26094.45985664  .00001581  00000+0  36604-2 0  9990
2 40845  21.5600 160.9555 7395178 147.7480 294.1335  2.07621636 90783
CZ-3B DEB               
1 40849U 11077AE  26093.92176955 -.00000179  00000+0  72127-2 0  9993
2 40849  26.4693   4.9413 7399405  31.4069 356.5338  1.90661219 90522
CZ-3B DEB               
1 40850U 11077AF  26093.46745925  .00000553  00000+0  23115-2 0  9991
2 40850  24.9861 263.5745 7484640 222.1733  46.2287  1.92991505 77851
CZ-3B DEB               
1 40852U 11077AH  26090.40149568  .00000063  00000+0  00000+0 0  9996
2 40852  26.9083  57.8031 7335046 273.5923  13.3566  1.90689287 84873
